STARLINK-11643 [DTC]    
1 63192U 25048K   25297.70204213  .00050768  00000+0  39644-3 0  9998
2 63192  42.9996  59.6022 0001476 279.7881  80.2820 15.70857241 37130
STARLINK-11635 [DTC]    
1 63193U 25048L   25297.80797671  .00322019  00000+0  24160-2 0  9992
2 63193  43.0003  58.6634 0000932 299.0938  60.9836 15.70849634 37155
STARLINK-11636 [DTC]    
1 63194U 25048M   25298.28490342  .00359308  00000+0  26820-2 0  9997
2 63194  43.0006  56.2390 0003065 223.7351 136.3274 15.70860850 37220
STARLINK-11631 [DTC]    
1 63195U 25048N   25297.79747862  .00140784  00000+0  10801-2 0  9993
2 63195  42.9983  59.4731 0001906 254.2469 105.8189 15.70885788 37142
STARLINK-32946          
1 63196U 25048P   25298.25634398  .00033808  00000+0  12319-2 0  9999
2 63196  42.9983 134.1837 0001081 281.2063  78.8667 15.27595195 36337
STARLINK-32960          
1 63197U 25048Q   25297.96957208  .00028573  00000+0  10431-2 0  9991
2 63197  42.9999 131.9575 0001618 272.2865  87.7801 15.27603157 36332
STARLINK-32904          
1 63198U 25048R   25298.25794510  .00035694  00000+0  12982-2 0  9995
2 63198  43.0027 129.8193 0001740 266.9347  93.1305 15.27633246 36387
STARLINK-32931          
1 63199U 25048S   25297.82466382  .00030161  00000+0  11000-2 0  9995
2 63199  42.9991 132.5841 0001701 268.6758  91.3899 15.27610291 36315
STARLINK-32934          
1 63200U 25048T   25297.54513755  .00032359  00000+0  11792-2 0  9993
2 63200  43.0007 133.9293 0000645 262.8274  97.2504 15.27610589 36272
STARLINK-32938          
1 63201U 25048U   25297.82852133  .00029211  00000+0  10663-2 0  9990
2 63201  43.0006 132.6121 0002026 276.6471  83.4150 15.27594782 36310
STARLINK-32935          
1 63202U 25048V   25298.24268431  .00039730  00000+0  14448-2 0  9992
2 63202  42.9993 130.5695 0001248 283.3398  76.7314 15.27596387 36371
STARLINK-32930          
1 63203U 25048W   25298.23882174  .00025630  00000+0  93661-3 0  9997
2 63203  42.9991 130.5330 0002611 278.6601  81.3955 15.27615420 36378
STARLINK-11654 [DTC]    
1 63265U 25053A   25298.15425298  .00356682  00000+0  26310-2 0  9992
2 63265  42.9988 209.1590 0003372 266.3203  93.7279 15.71150573 36356
STARLINK-11659 [DTC]    
1 63266U 25053B   25298.14894419  .00312313  00000+0  23465-2 0  9998
2 63266  42.9999 209.1164 0002014 273.0146  87.0491 15.70845738 36354
STARLINK-11653 [DTC]    
1 63267U 25053C   25298.17109770  .00304717  00000+0  22943-2 0  9990
2 63267  42.9997 209.2938 0000962 300.1937  59.8835 15.70818231 36350
STARLINK-11641 [DTC]    
1 63268U 25053D   25298.13301729  .00364920  00000+0  27103-2 0  9990
2 63268  42.9992 208.9880 0002105 280.2247  79.8383 15.70963414 36355
STARLINK-11638 [DTC]    
1 63269U 25053E   25298.13832857  .00293831  00000+0  22050-2 0  9990
2 63269  42.9993 209.0294 0001498 306.5011  53.5718 15.70930884 36359
STARLINK-11614 [DTC]    
1 63270U 25053F   25298.10659682  .00134067  00000+0  10292-2 0  9992
2 63270  42.9985 209.6723 0001811 279.6365  80.4298 15.70892701 36342
STARLINK-11620 [DTC]    
1 63271U 25053G   25298.12252408  .00185812  00000+0  14148-2 0  9998
2 63271  42.9998 209.8012 0001898 273.9900  86.0751 15.70917408 36345
STARLINK-11619 [DTC]    
1 63272U 25053H   25298.15954456  .00290914  00000+0  21726-2 0  9994
2 63272  43.0006 209.2036 0004469 272.1382  87.8974 15.71048396 36359
STARLINK-11621 [DTC]    
1 63273U 25053J   25298.12770451  .00185926  00000+0  14163-2 0  9996
2 63273  43.0016 208.9461 0002338 271.4925  88.5674 15.70905231 36351
STARLINK-11615 [DTC]    
1 63274U 25053K   25298.03770443  .00361714  00000+0  26944-2 0  9999
2 63274  43.0001 210.0143 0002108 261.3632  98.6996 15.70903342 36333
STARLINK-11608 [DTC]    
1 63275U 25053L   25298.33336806  .00006489  00000+0  54038-4 0  9996
2 63275  43.0003 207.9341 0001692 277.2638  77.0439 15.70834363  5953
STARLINK-11623 [DTC]    
1 63276U 25053M   25298.18079941  .00192745  00000+0  14671-2 0  9992
2 63276  42.9996 209.3759 0001665 272.4765  87.5912 15.70903973 36343
STARLINK-11612 [DTC]    
1 63277U 25053N   25298.17549335  .00163450  00000+0  12509-2 0  9990
2 63277  42.9998 209.3333 0000732 265.2991  94.7793 15.70869209 36350
STARLINK-33660          
1 63278U 25053P   25298.03345255  .00026386  00000+0  96465-3 0  9991
2 63278  43.0013 288.1515 0000980 230.4372 129.6393 15.27590454 35448
STARLINK-33611          
1 63279U 25053Q   25298.26206960  .00037802  00000+0  13753-2 0  9999
2 63279  43.0012 282.9519 0000871 257.9704 102.1050 15.27602066 35636
STARLINK-33646          
1 63280U 25053R   25298.25901511  .00048148  00000+0  17465-2 0  9993
2 63280  43.0017 286.3976 0001509 258.5497 101.5186 15.27604856 35488
STARLINK-33665          
1 63281U 25053S   25298.23717053  .00031723  00000+0  11582-2 0  9993
2 63281  43.0033 286.2306 0001296 268.0074  92.0629 15.27556664 35482
STARLINK-33603          
1 63282U 25053T   25298.03730372  .00034675  00000+0  12631-2 0  9996
2 63282  43.0035 288.1580 0001323 202.6082 157.4711 15.27595978 35449
STARLINK-33669          
1 63283U 25053U   25298.24489530  .00031326  00000+0  11436-2 0  9999
2 63283  43.0023 286.2890 0001468 258.9974 101.0712 15.27564969 35480
STARLINK-33673          
1 63284U 25053V   25298.01499537  .00033386  00000+0  12169-2 0  9995
2 63284  43.0031 280.2019 0001134 243.0498 117.0238 15.27589770 35648
STARLINK-33662          
1 63285U 25053W   25298.26672725  .00033088  00000+0  12058-2 0  9991
2 63285  43.0024 286.4522 0001043 248.2241 111.8499 15.27600088 35489
STARLINK-33613          
1 63286U 25053X   25298.02701473  .00034005  00000+0  12378-2 0  9994
2 63286  43.0066 288.1021 0001676 267.2603  92.8057 15.27627059 35445
STARLINK-33680          
1 63287U 25053Y   25298.25130750  .00029908  00000+0  10913-2 0  9993
2 63287  43.0021 286.3411 0001486 269.6436  90.4246 15.27600079 35536
STARLINK-11568 [DTC]    
1 63307U 25057A   25298.20903022  .00360162  00000+0  26868-2 0  9991
2 63307  42.9988   0.8412 0001339 266.9422  93.1293 15.70872390 35875
STARLINK-11575 [DTC]    
1 63308U 25057B   25298.29916400  .00296602  00000+0  22261-2 0  9995
2 63308  42.9984   0.6733 0000893 209.6193 150.4624 15.70918482 35888
STARLINK-11585 [DTC]    
1 63309U 25057C   25298.21964783  .00372035  00000+0  27499-2 0  9998
2 63309  42.9991   0.9264 0001763 227.6970 132.3748 15.71056689 35901
STARLINK-11587 [DTC]    
1 63310U 25057D   25298.32039965  .00276291  00000+0  20857-2 0  9995
2 63310  42.9985   0.8414 0004352 295.4925  64.5492 15.70837401 35889
STARLINK-11589 [DTC]    
1 63311U 25057E   25298.19853963  .00310724  00000+0  23266-2 0  9990
2 63311  42.9999   1.6513 0001537 241.9445 118.1268 15.70932508 35868
STARLINK-11650 [DTC]    
1 63312U 25057F   25298.24710896  .00391997  00000+0  29148-2 0  9990
2 63312  43.0004   1.1478 0004909 300.0892  59.9488 15.70849959 35900
STARLINK-11648 [DTC]    
1 63313U 25057G   25298.24619721  .00402043  00000+0  29869-2 0  9991
2 63313  42.9985   1.1378 0004264 297.8365  62.2071 15.70843004 35874
STARLINK-11640 [DTC]    
1 63314U 25057H   25298.17730300  .00272277  00000+0  20422-2 0  9991
2 63314  42.9984   1.4794 0001109 248.4201 111.6549 15.71008308 35864
STARLINK-11652 [DTC]    
1 63315U 25057J   25298.23026874  .00320829  00000+0  24081-2 0  9995
2 63315  42.9997   1.0093 0004296 294.1540  65.8878 15.70840221 35908
STARLINK-11645 [DTC]    
1 63316U 25057K   25297.55209251  .00130668  00000+0  10041-2 0  9993
2 63316  42.9992   5.3964 0001476 282.3736  77.6967 15.70883293 35794
STARLINK-11633 [DTC]    
1 63317U 25057L   25298.20371920  .00285236  00000+0  21364-2 0  9992
2 63317  43.0002   0.7933 0002241 239.3327 120.7320 15.71002114 35871
STARLINK-11593 [DTC]    
1 63318U 25057M   25297.57851606  .00280007  00000+0  21067-2 0  9997
2 63318  42.9983   4.7122 0000908 315.7619  44.3176 15.70909844 35801
STARLINK-11588 [DTC]    
1 63319U 25057N   25298.22495581  .00378109  00000+0  27923-2 0  9995
2 63319  42.9985   0.9647 0001570 233.4921 126.5802 15.71060333 35870
STARLINK-33671          
1 63320U 25057P   25297.83801390  .00051958  00000+0  18829-2 0  9997
2 63320  43.0019  67.4298 0002042 281.3199  78.7423 15.27605418 35121
STARLINK-33650          
1 63321U 25057Q   25297.70963788  .00032964  00000+0  12015-2 0  9991
2 63321  43.0032  78.5718 0002065 271.6100  88.4515 15.27593969 34942
STARLINK-33689          
1 63322U 25057R   25298.09424741  .00025123  00000+0  91859-3 0  9999
2 63322  43.0003  76.2944 0002098 277.8912  82.1702 15.27606561 35046
STARLINK-33607          
1 63323U 25057S   25298.11611346  .00036519  00000+0  13296-2 0  9991
2 63323  43.0035  76.4617 0001365 278.4499  81.6197 15.27589949 35002
STARLINK-33619          
1 63324U 25057T   25298.08526121  .00031987  00000+0  11668-2 0  9999
2 63324  43.0036  76.2208 0001221 280.5329  79.5385 15.27581431 35042
STARLINK-33612          
1 63325U 25057U   25298.07512263  .00036613  00000+0  13326-2 0  9995
2 63325  43.0006  77.0133 0001543 269.3074  90.7601 15.27601433 35035
STARLINK-33672          
1 63326U 25057V   25297.70835625  .00033068  00000+0  12057-2 0  9996
2 63326  43.0028  78.5448 0001499 281.6061  78.4622 15.27583970 34982
STARLINK-33625          
1 63327U 25057W   25298.06695361  .00011623  00000+0  43116-3 0  9992
2 63327  43.0018  69.1614 0001403 284.6667  75.4029 15.27584032 35128
STARLINK-33699          
1 63328U 25057X   25298.05538830  .00020068  00000+0  73646-3 0  9993
2 63328  42.9971  69.0747 0001246 283.0431  77.0282 15.27593968 35080
STARLINK-33674          
1 63329U 25057Y   25297.86225535  .00033197  00000+0  12098-2 0  9997
2 63329  43.0018  77.9898 0001922 265.4303  94.6329 15.27597825 35008
STARLINK-32840          
1 63363U 25063A   25298.32069334  .00094919  00000+0  23519-2 0  9996
2 63363  53.1597 319.8487 0001181  73.9106 286.2029 15.39640687 34038
